*******************************************************************************
Ephemeris / WWW_USER Mon Mar 24 06:46:23 2025 Pasadena, USA      / Horizons    
*******************************************************************************
Target body name: Hale-Bopp (C/1995 O1)           {source: JPL#226}
Center body name: Earth (399)                     {source: DE441}
Center-site name: Gemini South Obs., Cerro Pachon
*******************************************************************************
Start time      : A.D. 2018-Sep-07 22:39:00.0000 UT      
Stop  time      : A.D. 2018-Sep-08 10:41:00.0000 UT      
Step-size       : 1 minutes
*******************************************************************************
Target pole/equ : undefined
Target radii    : 30. km                                                       
Center geodetic : 289.2634, -30.2406227, 2.71233  {E-lon(deg),Lat(deg),Alt(km)}
Center cylindric: 289.2634,5517.21435,-3194.81213 {E-lon(deg),Dxy(km),Dz(km)}
Center pole/equ : ITRF93                          {East-longitude positive}
Center radii    : 6378.137, 6378.137, 6356.752 km {Equator_a, b, pole_c}       
Target primary  : Sun
Vis. interferer : MOON (R_eq= 1737.400) km        {source: DE441}
Rel. light bend : Sun                             {source: DE441}
Rel. lght bnd GM: 1.3271E+11 km^3/s^2                                          
Small-body perts: Yes                             {source: SB441-N16}
Atmos refraction: NO (AIRLESS)
RA format       : HMS
Time format     : CAL 
Calendar mode   : Mixed Julian/Gregorian
RTS-only print  : NO       
EOP file        : eop.250321.p250617                                           
EOP coverage    : DATA-BASED 1962-JAN-20 TO 2025-MAR-21. PREDICTS-> 2025-JUN-16
Units conversion: 1 au= 149597870.700 km, c= 299792.458 km/s, 1 day= 86400.0 s 
Table cut-offs 1: Elevation (-90.0deg=NO ),Airmass (>38.000=NO), Daylight (YES)
Table cut-offs 2: Solar elongation (  0.0,180.0=NO ),Local Hour Angle( 0.0=NO )
Table cut-offs 3: RA/DEC angular rate (     0.0=NO )                           
*******************************************************************************
Initial IAU76/J2000 heliocentric ecliptic osculating elements (au, days, deg.):
  EPOCH=  2459837.5 ! 2022-Sep-15.0000000 (TDB)    RMSW= n.a.                  
   EC= .9949810027633206   QR= .890537663547794    TP= 2450537.1349071441      
   OM= 282.7334213961641   W= 130.4146670659176    IN= 89.28759424740302       
  Equivalent ICRF heliocentric cartesian coordinates (au, au/d):
   X= 3.907631452214869E+00  Y=-1.373895334060347E+00  Z=-4.624358508575312E+01
  VX= 3.778244409519935E-04 VY=-5.803173067116371E-04 VZ=-3.255716412104052E-03
Comet physical (GM= km^3/s^2; RAD= km):                                        
   GM= n.a.                RAD= 30.                                            
   M1=  4.8      M2=  n.a.     k1=  4.     k2= n.a.     PHCOF= n.a.            
*******************************************************************************
 Date__(UT)__HR:MN     R.A._________(ICRF)_________DEC
******************************************************
$$SOE
 2018-Sep-08 04:51     23 33 15.969559 -86 42 13.72122
 2018-Sep-08 04:52     23 33 15.903709 -86 42 13.72965
 2018-Sep-08 04:53     23 33 15.837859 -86 42 13.73808
 2018-Sep-08 04:54     23 33 15.772008 -86 42 13.74651
 2018-Sep-08 04:55     23 33 15.706156 -86 42 13.75493
 2018-Sep-08 04:56     23 33 15.640304 -86 42 13.76335
 2018-Sep-08 04:57     23 33 15.574452 -86 42 13.77176
 2018-Sep-08 04:58     23 33 15.508599 -86 42 13.78017
 2018-Sep-08 04:59     23 33 15.442746 -86 42 13.78857
 2018-Sep-08 05:00     23 33 15.376893 -86 42 13.79697
 2018-Sep-08 05:01     23 33 15.311039 -86 42 13.80536
 2018-Sep-08 05:02     23 33 15.245185 -86 42 13.81375
 2018-Sep-08 05:03     23 33 15.179331 -86 42 13.82214
 2018-Sep-08 05:04     23 33 15.113477 -86 42 13.83052
 2018-Sep-08 05:05     23 33 15.047622 -86 42 13.83889
 2018-Sep-08 05:06     23 33 14.981767 -86 42 13.84727
 2018-Sep-08 05:07     23 33 14.915912 -86 42 13.85563
 2018-Sep-08 05:08     23 33 14.850056 -86 42 13.86400
 2018-Sep-08 05:09     23 33 14.784201 -86 42 13.87236
 2018-Sep-08 05:10  t  23 33 14.718345 -86 42 13.88071
 2018-Sep-08 05:11     23 33 14.652489 -86 42 13.88906
 2018-Sep-08 05:12     23 33 14.586633 -86 42 13.89740
 2018-Sep-08 05:13     23 33 14.520777 -86 42 13.90574
 2018-Sep-08 05:14     23 33 14.454921 -86 42 13.91408
 2018-Sep-08 05:15     23 33 14.389065 -86 42 13.92241
 2018-Sep-08 05:16     23 33 14.323208 -86 42 13.93074
 2018-Sep-08 05:17     23 33 14.257352 -86 42 13.93906
 2018-Sep-08 05:18     23 33 14.191496 -86 42 13.94738
 2018-Sep-08 05:19     23 33 14.125639 -86 42 13.95569
 2018-Sep-08 05:20     23 33 14.059783 -86 42 13.96400
 2018-Sep-08 05:21     23 33 13.993927 -86 42 13.97230
 2018-Sep-08 05:22     23 33 13.928071 -86 42 13.98060
 2018-Sep-08 05:23     23 33 13.862214 -86 42 13.98890
 2018-Sep-08 05:24     23 33 13.796358 -86 42 13.99719
 2018-Sep-08 05:25     23 33 13.730503 -86 42 14.00548
 2018-Sep-08 05:26     23 33 13.664647 -86 42 14.01376
 2018-Sep-08 05:27     23 33 13.598791 -86 42 14.02204
 2018-Sep-08 05:28     23 33 13.532936 -86 42 14.03031
 2018-Sep-08 05:29     23 33 13.467080 -86 42 14.03858
 2018-Sep-08 05:30     23 33 13.401225 -86 42 14.04684
 2018-Sep-08 05:31     23 33 13.335370 -86 42 14.05510
 2018-Sep-08 05:32     23 33 13.269516 -86 42 14.06336
 2018-Sep-08 05:33     23 33 13.203661 -86 42 14.07161
 2018-Sep-08 05:34     23 33 13.137807 -86 42 14.07986
 2018-Sep-08 05:35     23 33 13.071954 -86 42 14.08810
 2018-Sep-08 05:36     23 33 13.006100 -86 42 14.09633
 2018-Sep-08 05:37     23 33 12.940247 -86 42 14.10457
 2018-Sep-08 05:38     23 33 12.874394 -86 42 14.11280
 2018-Sep-08 05:39     23 33 12.808542 -86 42 14.12102
 2018-Sep-08 05:40     23 33 12.742690 -86 42 14.12924
 2018-Sep-08 05:41     23 33 12.676838 -86 42 14.13745
 2018-Sep-08 05:42     23 33 12.610987 -86 42 14.14566
 2018-Sep-08 05:43     23 33 12.545136 -86 42 14.15387
 2018-Sep-08 05:44     23 33 12.479285 -86 42 14.16207
 2018-Sep-08 05:45     23 33 12.413436 -86 42 14.17027
 2018-Sep-08 05:46     23 33 12.347586 -86 42 14.17846
 2018-Sep-08 05:47     23 33 12.281737 -86 42 14.18665
 2018-Sep-08 05:48     23 33 12.215889 -86 42 14.19483
 2018-Sep-08 05:49     23 33 12.150041 -86 42 14.20301
 2018-Sep-08 05:50     23 33 12.084194 -86 42 14.21119
 2018-Sep-08 05:51     23 33 12.018347 -86 42 14.21936
 2018-Sep-08 05:52     23 33 11.952501 -86 42 14.22753
 2018-Sep-08 05:53     23 33 11.886655 -86 42 14.23569
 2018-Sep-08 05:54     23 33 11.820811 -86 42 14.24385
 2018-Sep-08 05:55     23 33 11.754966 -86 42 14.25200
 2018-Sep-08 05:56     23 33 11.689123 -86 42 14.26015
 2018-Sep-08 05:57     23 33 11.623280 -86 42 14.26829
 2018-Sep-08 05:58     23 33 11.557438 -86 42 14.27643
 2018-Sep-08 05:59     23 33 11.491596 -86 42 14.28457
 2018-Sep-08 06:00     23 33 11.425755 -86 42 14.29270
 2018-Sep-08 06:01     23 33 11.359916 -86 42 14.30082
 2018-Sep-08 06:02     23 33 11.294076 -86 42 14.30894
 2018-Sep-08 06:03     23 33 11.228238 -86 42 14.31706
 2018-Sep-08 06:04     23 33 11.162400 -86 42 14.32518
 2018-Sep-08 06:05     23 33 11.096564 -86 42 14.33328
 2018-Sep-08 06:06     23 33 11.030728 -86 42 14.34139
 2018-Sep-08 06:07     23 33 10.964892 -86 42 14.34949
 2018-Sep-08 06:08     23 33 10.899058 -86 42 14.35759
 2018-Sep-08 06:09     23 33 10.833225 -86 42 14.36568
 2018-Sep-08 06:10     23 33 10.767393 -86 42 14.37376
 2018-Sep-08 06:11     23 33 10.701561 -86 42 14.38185
 2018-Sep-08 06:12     23 33 10.635731 -86 42 14.38992
 2018-Sep-08 06:13     23 33 10.569901 -86 42 14.39800
 2018-Sep-08 06:14     23 33 10.504072 -86 42 14.40607
 2018-Sep-08 06:15     23 33 10.438245 -86 42 14.41413
 2018-Sep-08 06:16     23 33 10.372418 -86 42 14.42219
 2018-Sep-08 06:17     23 33 10.306593 -86 42 14.43025
 2018-Sep-08 06:18     23 33 10.240768 -86 42 14.43830
 2018-Sep-08 06:19     23 33 10.174945 -86 42 14.44635
 2018-Sep-08 06:20     23 33 10.109122 -86 42 14.45440
 2018-Sep-08 06:21     23 33 10.043301 -86 42 14.46243
 2018-Sep-08 06:22     23 33 09.977481 -86 42 14.47047
 2018-Sep-08 06:23     23 33 09.911662 -86 42 14.47850
 2018-Sep-08 06:24     23 33 09.845844 -86 42 14.48653
 2018-Sep-08 06:25     23 33 09.780027 -86 42 14.49455
 2018-Sep-08 06:26     23 33 09.714212 -86 42 14.50257
 2018-Sep-08 06:27     23 33 09.648397 -86 42 14.51058
 2018-Sep-08 06:28     23 33 09.582584 -86 42 14.51859
 2018-Sep-08 06:29     23 33 09.516772 -86 42 14.52659
 2018-Sep-08 06:30     23 33 09.450962 -86 42 14.53459
 2018-Sep-08 06:31     23 33 09.385153 -86 42 14.54259
 2018-Sep-08 06:32     23 33 09.319344 -86 42 14.55058
 2018-Sep-08 06:33     23 33 09.253538 -86 42 14.55857
 2018-Sep-08 06:34     23 33 09.187732 -86 42 14.56655
 2018-Sep-08 06:35     23 33 09.121928 -86 42 14.57453
 2018-Sep-08 06:36     23 33 09.056125 -86 42 14.58251
 2018-Sep-08 06:37     23 33 08.990324 -86 42 14.59048
 2018-Sep-08 06:38     23 33 08.924524 -86 42 14.59845
 2018-Sep-08 06:39     23 33 08.858726 -86 42 14.60641
 2018-Sep-08 06:40     23 33 08.792928 -86 42 14.61437
 2018-Sep-08 06:41     23 33 08.727133 -86 42 14.62232
 2018-Sep-08 06:42     23 33 08.661338 -86 42 14.63027
 2018-Sep-08 06:43     23 33 08.595546 -86 42 14.63822
 2018-Sep-08 06:44     23 33 08.529754 -86 42 14.64616
 2018-Sep-08 06:45     23 33 08.463964 -86 42 14.65410
 2018-Sep-08 06:46     23 33 08.398176 -86 42 14.66203
 2018-Sep-08 06:47     23 33 08.332389 -86 42 14.66996
 2018-Sep-08 06:48     23 33 08.266604 -86 42 14.67788
 2018-Sep-08 06:49     23 33 08.200820 -86 42 14.68580
 2018-Sep-08 06:50     23 33 08.135038 -86 42 14.69372
 2018-Sep-08 06:51     23 33 08.069258 -86 42 14.70163
 2018-Sep-08 06:52     23 33 08.003479 -86 42 14.70954
 2018-Sep-08 06:53     23 33 07.937702 -86 42 14.71744
 2018-Sep-08 06:54     23 33 07.871926 -86 42 14.72534
